[{"OBJECT_NAME":"OBJECT C","OBJECT_ID":"2024-125C","EPOCH":"2026-03-09T14:14:20.761440","MEAN_MOTION":15.83873438,"ECCENTRICITY":0.0005226,"INCLINATION":97.2296,"RA_OF_ASC_NODE":291.0595,"ARG_OF_PERICENTER":185.1229,"MEAN_ANOMALY":174.9989,"EPHEMERIS_TYPE":0,"CLASSIFICATION_TYPE":"U","NORAD_CAT_ID":60205,"ELEMENT_SET_NO":999,"REV_AT_EPOCH":9451,"BSTAR":0.0010633,"MEAN_MOTION_DOT":0.0024123,"MEAN_MOTION_DDOT":0},{"OBJECT_NAME":"STARLINK-36743","OBJECT_ID":"2026-034AC","EPOCH":"2026-03-09T21:38:34.404576","MEAN_MOTION":15.81023541,"ECCENTRICITY":0.00019938,"INCLINATION":53.1597,"RA_OF_ASC_NODE":210.061,"ARG_OF_PERICENTER":51.6212,"MEAN_ANOMALY":308.499,"EPHEMERIS_TYPE":0,"CLASSIFICATION_TYPE":"U","NORAD_CAT_ID":67876,"ELEMENT_SET_NO":999,"REV_AT_EPOCH":397,"BSTAR":0.0018143919,"MEAN_MOTION_DOT":0.00376035,"MEAN_MOTION_DDOT":0}]
